ORBCOMM FM115           
1 41186U 15081H   24210.08565727  .00001420  00000+0  32219-3 0  9990
2 41186  46.9987 139.3651 0000933 343.0023  17.0832 14.60933343460358
ORBCOMM FM108           
1 41187U 15081J   24209.46413410  .00001456  00000+0  35945-3 0  9990
2 41187  47.0033 199.0943 0003115 271.7798  88.2730 14.56769080459424
ORBCOMM FM117           
1 41188U 15081K   24209.70427836  .00000680  00000+0  18795-3 0  9997
2 41188  46.9996 196.8291 0003845 280.1472  79.8979 14.56758856459504
ORBCOMM FM116           
1 41189U 15081L   24210.17303164  .00001356  00000+0  33715-3 0  9998
2 41189  47.0021 284.4411 0002336 327.4409  32.6332 14.56807648458450
